start=new Date('2021-11-29T00:00:00.000Z').valueOf();
sats=[{"CENTER_NAME":"EARTH","EPHEMERIS_TYPE":"0","EPOCH":"2021-11-28T16:19:02.652384","OBJECT_NAME":"STARLINK-2329","TIME_SYSTEM":"UTC","INCLINATION":"53.0531","TLE_LINE2":"2 47873  53.0531  73.7485 0001607  64.5950 295.5205 15.06397304 40892","SEMIMAJOR_AXIS":"6925.357","MEAN_ANOMALY":"295.5205","RA_OF_ASC_NODE":"73.7485","COUNTRY_CODE":"US","ECCENTRICITY":"0.00016070","MEAN_MOTION_DOT":"0.00000818","LAUNCH_DATE":"2021-03-14","TLE_LINE1":"1 47873U 21021P   21332.67989181  .00000818  00000-0  73808-4 0  9992","DECAY_DATE":null,"FILE":"3226391","ELEMENT_SET_NO":"999","GP_ID":"190686760","REV_AT_EPOCH":"4089","RCS_SIZE":"LARGE","BSTAR":"0.00007380800000","SITE":"AFETR","MEAN_MOTION_DDOT":"0.0000000000000","ARG_OF_PERICENTER":"64.5950","REF_FRAME":"TEME","PERIAPSIS":"546.109","NORAD_CAT_ID":"47873","OBJECT_TYPE":"PAYLOAD","CLASSIFICATION_TYPE":"U","MEAN_MOTION":"15.06397304","OBJECT_ID":"2021-021P","APOAPSIS":"548.335","PERIOD":"95.592","MEAN_ELEMENT_THEORY":"SGP4"},{"DECAY_DATE":null,"TLE_LINE1":"1 47874U 21021Q   21332.88766463  .00000365  00000-0  43392-4 0  9994","FILE":"3226391","MEAN_ANOMALY":"300.9822","RA_OF_ASC_NODE":"27.8362","LAUNCH_DATE":"2021-03-14","MEAN_MOTION_DOT":"0.00000365","COUNTRY_CODE":"US","ECCENTRICITY":"0.00007490","SEMIMAJOR_AXIS":"6925.349","TLE_LINE2":"2 47874  53.0493  27.8362 0000749  59.1241 300.9822 15.06399803 41560","EPHEMERIS_TYPE":"0","CENTER_NAME":"EARTH","TIME_SYSTEM":"UTC","INCLINATION":"53.0493","EPOCH":"2021-11-28T21:18:14.224032","OBJECT_NAME":"STARLINK-2330","MEAN_MOTION":"15.06399803","OBJECT_ID":"2021-021Q","CLASSIFICATION_TYPE":"U","PERIOD":"95.592","MEAN_ELEMENT_THEORY":"SGP4","APOAPSIS":"547.733","NORAD_CAT_ID":"47874","OBJECT_TYPE":"PAYLOAD","BSTAR":"0.00004339200000","RCS_SIZE":"LARGE","PERIAPSIS":"546.695","SITE":"AFETR","MEAN_MOTION_DDOT":"0.0000000000000","ARG_OF_PERICENTER":"59.1241","REF_FRAME":"TEME","REV_AT_EPOCH":"4156","ELEMENT_SET_NO":"999","GP_ID":"190687009"},{"OBJECT_ID":"2021-021R","MEAN_MOTION":"15.06406269","CLASSIFICATION_TYPE":"U","PERIOD":"95.592","MEAN_ELEMENT_THEORY":"SGP4","APOAPSIS":"548.027","NORAD_CAT_ID":"47875","OBJECT_TYPE":"PAYLOAD","BSTAR":"0.00003637300000","RCS_SIZE":"LARGE","PERIAPSIS":"546.362","REF_FRAME":"TEME","MEAN_MOTION_DDOT":"0.0000000000000","SITE":"AFETR","ARG_OF_PERICENTER":"80.9308","REV_AT_EPOCH":"4082","GP_ID":"190685759","ELEMENT_SET_NO":"999","DECAY_DATE":null,"TLE_LINE1":"1 47875U 21021R   21332.73794154  .00000261  00000-0  36373-4 0  9993","FILE":"3226391","RA_OF_ASC_NODE":"83.4815","MEAN_ANOMALY":"279.1817","LAUNCH_DATE":"2021-03-14","MEAN_MOTION_DOT":"0.00000261","COUNTRY_CODE":"US","ECCENTRICITY":"0.00012020","SEMIMAJOR_AXIS":"6925.329","TLE_LINE2":"2 47875  53.0567  83.4815 0001202  80.9308 279.1817 15.06406269 40829","EPHEMERIS_TYPE":"0","CENTER_NAME":"EARTH","INCLINATION":"53.0567","TIME_SYSTEM":"UTC","EPOCH":"2021-11-28T17:42:38.149056","OBJECT_NAME":"STARLINK-2331"},{"TIME_SYSTEM":"UTC","INCLINATION":"53.0567","OBJECT_NAME":"STARLINK-2332","EPOCH":"2021-11-28T17:26:43.749600","EPHEMERIS_TYPE":"0","CENTER_NAME":"EARTH","SEMIMAJOR_AXIS":"6925.364","TLE_LINE2":"2 47876  53.0567  83.5425 0001376  83.2706 276.8440 15.06394972 40775","MEAN_MOTION_DOT":"-0.00000038","LAUNCH_DATE":"2021-03-14","COUNTRY_CODE":"US","ECCENTRICITY":"0.00013760","MEAN_ANOMALY":"276.8440","RA_OF_ASC_NODE":"83.5425","FILE":"3226391","DECAY_DATE":null,"TLE_LINE1":"1 47876U 21021S   21332.72689525 -.00000038  00000-0  16330-4 0  9992","REV_AT_EPOCH":"4077","ELEMENT_SET_NO":"999","GP_ID":"190686009","PERIAPSIS":"546.276","SITE":"AFETR","MEAN_MOTION_DDOT":"0.0000000000000","ARG_OF_PERICENTER":"83.2706","REF_FRAME":"TEME","BSTAR":"0.00001633000000","RCS_SIZE":"LARGE","OBJECT_TYPE":"PAYLOAD","NORAD_CAT_ID":"47876","PERIOD":"95.592","MEAN_ELEMENT_THEORY":"SGP4","APOAPSIS":"548.182","MEAN_MOTION":"15.06394972","OBJECT_ID":"2021-021S","CLASSIFICATION_TYPE":"U"},{"ELEMENT_SET_NO":"999","GP_ID":"190686261","REV_AT_EPOCH":"4076","RCS_SIZE":"LARGE","BSTAR":"0.00005788400000","ARG_OF_PERICENTER":"85.3470","SITE":"AFETR","MEAN_MOTION_DDOT":"0.0000000000000","REF_FRAME":"TEME","PERIAPSIS":"546.314","NORAD_CAT_ID":"47877","OBJECT_TYPE":"PAYLOAD","CLASSIFICATION_TYPE":"U","MEAN_MOTION":"15.06405960","OBJECT_ID":"2021-021T","APOAPSIS":"548.077","MEAN_ELEMENT_THEORY":"SGP4","PERIOD":"95.592","CENTER_NAME":"EARTH","EPHEMERIS_TYPE":"0","EPOCH":"2021-11-28T17:47:56.680800","OBJECT_NAME":"STARLINK-2333","TIME_SYSTEM":"UTC","INCLINATION":"53.0563","TLE_LINE2":"2 47877  53.0563  83.4616 0001273  85.3470 274.7664 15.06405960 40764","SEMIMAJOR_AXIS":"6925.330","MEAN_ANOMALY":"274.7664","RA_OF_ASC_NODE":"83.4616","COUNTRY_CODE":"US","ECCENTRICITY":"0.00012730","LAUNCH_DATE":"2021-03-14","MEAN_MOTION_DOT":"0.00000581","TLE_LINE1":"1 47877U 21021T   21332.74162825  .00000581  00000-0  57884-4 0  9995","DECAY_DATE":null,"FILE":"3226391"},{"OBJECT_TYPE":"PAYLOAD","NORAD_CAT_ID":"47878","PERIOD":"95.592","MEAN_ELEMENT_THEORY":"SGP4","APOAPSIS":"548.115","OBJECT_ID":"2021-021U","MEAN_MOTION":"15.06397455","CLASSIFICATION_TYPE":"U","REV_AT_EPOCH":"4055","GP_ID":"190686510","ELEMENT_SET_NO":"999","PERIAPSIS":"546.328","REF_FRAME":"TEME","ARG_OF_PERICENTER":"77.2409","SITE":"AFETR","MEAN_MOTION_DDOT":"0.0000000000000","BSTAR":"0.00007065000000","RCS_SIZE":"LARGE","MEAN_MOTION_DOT":"0.00000771","LAUNCH_DATE":"2021-03-14","COUNTRY_CODE":"US","ECCENTRICITY":"0.00012900","RA_OF_ASC_NODE":"83.7277","MEAN_ANOMALY":"282.8724","FILE":"3226391","DECAY_DATE":null,"TLE_LINE1":"1 47878U 21021U   21332.68634276  .00000771  00000-0  70650-4 0  9990","INCLINATION":"53.0571","TIME_SYSTEM":"UTC","EPOCH":"2021-11-28T16:28:20.014464","OBJECT_NAME":"STARLINK-2335","EPHEMERIS_TYPE":"0","CENTER_NAME":"EARTH","SEMIMAJOR_AXIS":"6925.356","TLE_LINE2":"2 47878  53.0571  83.7277 0001290  77.2409 282.8724 15.06397455 40554"},{"RA_OF_ASC_NODE":"98.4523","MEAN_ANOMALY":"274.3208","LAUNCH_DATE":"2021-03-14","MEAN_MOTION_DOT":"-0.00000424","COUNTRY_CODE":"US","ECCENTRICITY":"0.00015530","DECAY_DATE":null,"TLE_LINE1":"1 47879U 21021V   21332.74947158 -.00000424  00000-0 -95351-5 0  9997","FILE":"3226391","EPHEMERIS_TYPE":"0","CENTER_NAME":"EARTH","INCLINATION":"53.0564","TIME_SYSTEM":"UTC","OBJECT_NAME":"STARLINK-2336","EPOCH":"2021-11-28T17:59:14.344512","SEMIMAJOR_AXIS":"6925.330","TLE_LINE2":"2 47879  53.0564  98.4523 0001553  85.7958 274.3208 15.06405916 40734","NORAD_CAT_ID":"47879","OBJECT_TYPE":"PAYLOAD","OBJECT_ID":"2021-021V","MEAN_MOTION":"15.06405916","CLASSIFICATION_TYPE":"U","PERIOD":"95.592","MEAN_ELEMENT_THEORY":"SGP4","APOAPSIS":"548.271","REV_AT_EPOCH":"4073","GP_ID":"190685260","ELEMENT_SET_NO":"999","BSTAR":"-0.00000953510000","RCS_SIZE":"LARGE","PERIAPSIS":"546.120","REF_FRAME":"TEME","SITE":"AFETR","MEAN_MOTION_DDOT":"0.0000000000000","ARG_OF_PERICENTER":"85.7958"},{"SEMIMAJOR_AXIS":"6925.353","TLE_LINE2":"2 47880  53.0572  93.5377 0001247  89.7819 270.3313 15.06398702 40623","INCLINATION":"53.0572","TIME_SYSTEM":"UTC","OBJECT_NAME":"STARLINK-2337","EPOCH":"2021-11-28T17:24:02.178144","EPHEMERIS_TYPE":"0","CENTER_NAME":"EARTH","FILE":"3226391","DECAY_DATE":null,"TLE_LINE1":"1 47880U 21021W   21332.72502521 -.00000101  00000-0  12117-4 0  9997","MEAN_MOTION_DOT":"-0.00000101","LAUNCH_DATE":"2021-03-14","COUNTRY_CODE":"US","ECCENTRICITY":"0.00012470","RA_OF_ASC_NODE":"93.5377","MEAN_ANOMALY":"270.3313","PERIAPSIS":"546.354","REF_FRAME":"TEME","MEAN_MOTION_DDOT":"0.0000000000000","SITE":"AFETR","ARG_OF_PERICENTER":"89.7819","BSTAR":"0.00001211700000","RCS_SIZE":"LARGE","REV_AT_EPOCH":"4062","GP_ID":"190685510","ELEMENT_SET_NO":"999","PERIOD":"95.592","MEAN_ELEMENT_THEORY":"SGP4","APOAPSIS":"548.081","OBJECT_ID":"2021-021W","MEAN_MOTION":"15.06398702","CLASSIFICATION_TYPE":"U","OBJECT_TYPE":"PAYLOAD","NORAD_CAT_ID":"47880"},{"COUNTRY_CODE":"US","ECCENTRICITY":"0.00016330","MEAN_MOTION_DOT":"0.00000774","LAUNCH_DATE":"2021-03-14","MEAN_ANOMALY":"269.9015","RA_OF_ASC_NODE":"93.3823","FILE":"3226391","TLE_LINE1":"1 47881U 21021X   21332.74807848  .00000774  00000-0  70824-4 0  9994","DECAY_DATE":null,"OBJECT_NAME":"STARLINK-2339","EPOCH":"2021-11-28T17:57:13.980672","TIME_SYSTEM":"UTC","INCLINATION":"53.0692","CENTER_NAME":"EARTH","EPHEMERIS_TYPE":"0","TLE_LINE2":"2 47881  53.0692  93.3823 0001633  90.2162 269.9015 15.06403182 40596","SEMIMAJOR_AXIS":"6925.339","OBJECT_TYPE":"PAYLOAD","NORAD_CAT_ID":"47881","APOAPSIS":"548.335","MEAN_ELEMENT_THEORY":"SGP4","PERIOD":"95.592","CLASSIFICATION_TYPE":"U","MEAN_MOTION":"15.06403182","OBJECT_ID":"2021-021X","ELEMENT_SET_NO":"999","GP_ID":"190686761","REV_AT_EPOCH":"4059","SITE":"AFETR","MEAN_MOTION_DDOT":"0.0000000000000","ARG_OF_PERICENTER":"90.2162","REF_FRAME":"TEME","PERIAPSIS":"546.073","RCS_SIZE":"LARGE","BSTAR":"0.00007082400000"},{"RA_OF_ASC_NODE":"83.2493","MEAN_ANOMALY":"273.2728","COUNTRY_CODE":"US","ECCENTRICITY":"0.00012470","MEAN_MOTION_DOT":"-0.00000053","LAUNCH_DATE":"2021-03-14","TLE_LINE1":"1 47882U 21021Y   21332.78955496 -.00000053  00000-0  15335-4 0  9999","DECAY_DATE":null,"FILE":"3226391","CENTER_NAME":"EARTH","EPHEMERIS_TYPE":"0","EPOCH":"2021-11-28T18:56:57.548544","OBJECT_NAME":"STARLINK-2340","INCLINATION":"53.0558","TIME_SYSTEM":"UTC","TLE_LINE2":"2 47882  53.0558  83.2493 0001247  86.8404 273.2728 15.06394874 40945","SEMIMAJOR_AXIS":"6925.364","NORAD_CAT_ID":"47882","OBJECT_TYPE":"PAYLOAD","CLASSIFICATION_TYPE":"U","OBJECT_ID":"2021-021Y","MEAN_MOTION":"15.06394874","APOAPSIS":"548.093","PERIOD":"95.592","MEAN_ELEMENT_THEORY":"SGP4","GP_ID":"190687010","ELEMENT_SET_NO":"999","REV_AT_EPOCH":"4094","RCS_SIZE":"LARGE","BSTAR":"0.00001533500000","REF_FRAME":"TEME","SITE":"AFETR","MEAN_MOTION_DDOT":"0.0000000000000","ARG_OF_PERICENTER":"86.8404","PERIAPSIS":"546.366"}];
